NORAD_CAT_ID,OBJECT_NAME,OBJECT_TYPE,EPOCH,MEAN_MOTION,ECCENTRICITY,INCLINATION,RA_OF_ASC_NODE,ARG_OF_PERICENTER,MEAN_ANOMALY,BSTAR,MEAN_MOTION_DOT,MEAN_MOTION_DDOT,TLE_LINE0,TLE_LINE1,TLE_LINE2,SEMIMAJOR_AXIS,PERIOD,APOGEE,PERIGEE,DECAYED
53032.0,STARLINK-4115,PAYLOAD,2024-04-09 22:47:21,15.08842149,0.0001611,53.2187,340.8847,92.1397,267.978,5.7482e-05,6.27e-06,0.0,0 STARLINK-4115,1 53032U 22076AY  24100.94955203  .00000627  00000-0  57482-4 0  9999,2 53032  53.2187 340.8847 0001611  92.1397 267.9780 15.08842149 97507,6917.874,95.437,540.853,538.624,0.0
53032.0,STARLINK-4115,PAYLOAD,2024-04-10 21:02:45,15.0883636,0.0001481,53.2188,336.7215,91.2333,268.8829,5.9904e-05,6.65e-06,0.0,0 STARLINK-4115,1 53032U 22076AY  24101.87691679  .00000665  00000-0  59904-4 0  9999,2 53032  53.2188 336.7215 0001481  91.2333 268.8829 15.08836360 98116,6917.892,95.438,540.781,538.732,0.0
53032.0,STARLINK-4115,PAYLOAD,2024-04-10 22:38:08,15.08840482,0.0001476,53.2188,336.4252,90.7704,269.3457,8.9994e-05,1.145e-05,0.0,0 STARLINK-4115,1 53032U 22076AY  24101.94315351  .00001145  00000-0  89994-4 0  9993,2 53032  53.2188 336.4252 0001476  90.7704 269.3457 15.08840482 97655,6917.879,95.438,540.765,538.723,0.0
53032.0,STARLINK-4115,PAYLOAD,2024-04-11 08:10:27,15.08837211,0.0001387,53.2179,334.6436,91.3302,268.7849,-1.1692e-05,-4.74e-06,0.0,0 STARLINK-4115,1 53032U 22076AY  24102.34059860 -.00000474  00000-0 -11692-4 0  9994,2 53032  53.2179 334.6436 0001387  91.3302 268.7849 15.08837211 97712,6917.889,95.438,540.713,538.794,0.0
53032.0,STARLINK-4115,PAYLOAD,2024-04-11 22:28:56,15.08835482,0.0001398,53.2186,331.9674,97.64,262.4751,8.8275e-05,1.117e-05,0.0,0 STARLINK-4115,1 53032U 22076AY  24102.93675937  .00001117  00000-0  88275-4 0  9992,2 53032  53.2186 331.9674 0001398  97.6400 262.4751 15.08835482 97805,6917.894,95.438,540.726,538.792,0.0
53032.0,STARLINK-4115,PAYLOAD,2024-04-12 22:19:41,15.08850194,0.0001356,53.2193,327.5063,91.7462,268.3686,0.00018755,2.699e-05,0.0,0 STARLINK-4115,1 53032U 22076AY  24103.93034711  .00002699  00000-0  18755-3 0  9993,2 53032  53.2193 327.5063 0001356  91.7462 268.3686 15.08850194 97958,6917.849,95.437,540.652,538.776,0.0
53032.0,STARLINK-4115,PAYLOAD,2024-04-12 23:55:04,15.08855038,0.0001466,53.2186,327.2089,93.7629,266.3531,0.00012864,1.761e-05,0.0,0 STARLINK-4115,1 53032U 22076AY  24103.99658509  .00001761  00000-0  12864-3 0  9990,2 53032  53.2186 327.2089 0001466  93.7629 266.3531 15.08855038 98437,6917.834,95.437,540.714,538.685,0.0
53032.0,STARLINK-4115,PAYLOAD,2024-04-13 20:35:07,15.08827253,0.000142,53.2195,323.3421,99.4422,260.6731,0.00016969,2.413e-05,0.0,0 STARLINK-4115,1 53032U 22076AY  24104.85772058  .00002413  00000-0  16969-3 0  9997,2 53032  53.2195 323.3421 0001420  99.4422 260.6731 15.08827253 98569,6917.919,95.438,540.767,538.802,0.0
53032.0,STARLINK-4115,PAYLOAD,2024-04-13 22:10:29,15.08844087,0.0001206,53.2187,323.0432,82.9167,277.1962,1.7979e-05,-2e-08,0.0,0 STARLINK-4115,1 53032U 22076AY  24104.92395528 -.00000002  00000-0  17979-4 0  9994,2 53032  53.2187 323.0432 0001206  82.9167 277.1962 15.08844087 98578,6917.868,95.437,540.567,538.899,0.0
53032.0,STARLINK-4115,PAYLOAD,2024-04-14 20:25:53,15.08855583,0.0001684,53.2198,318.8796,60.6374,299.4786,-0.00011181,-2.068e-05,0.0,0 STARLINK-4115,1 53032U 22076AY  24105.85131396 -.00002068  00000-0 -11181-3 0  9991,2 53032  53.2198 318.8796 0001684  60.6374 299.4786 15.08855583 98246,6917.833,95.437,540.863,538.533,0.0
53032.0,STARLINK-4115,PAYLOAD,2024-04-14 23:36:39,15.08852416,0.0001744,53.2205,318.2785,61.1986,298.9181,-1.8004e-05,-5.75e-06,0.0,0 STARLINK-4115,1 53032U 22076AY  24105.98379192 -.00000575  00000-0 -18004-4 0  9996,2 53032  53.2205 318.2785 0001744  61.1986 298.9181 15.08852416 98738,6917.842,95.437,540.914,538.501,0.0
53032.0,STARLINK-4115,PAYLOAD,2024-04-15 13:55:08,15.08841922,0.0001619,53.2191,315.6097,111.5382,248.5783,6.8864e-05,8.08e-06,0.0,0 STARLINK-4115,1 53032U 22076AY  24106.57995541  .00000808  00000-0  68864-4 0  9990,2 53032  53.2191 315.6097 0001619 111.5382 248.5783 15.08841922 98829,6917.875,95.437,540.86,538.62,0.0
53032.0,STARLINK-4115,PAYLOAD,2024-04-15 20:16:40,15.08841757,0.0001432,53.2192,314.4199,108.4563,251.6585,6.6765e-05,7.75e-06,0.0,0 STARLINK-4115,1 53032U 22076AY  24106.84491573  .00000775  00000-0  66765-4 0  9997,2 53032  53.2192 314.4199 0001432 108.4563 251.6585 15.08841757 98392,6917.875,95.437,540.731,538.749,0.0
53032.0,STARLINK-4115,PAYLOAD,2024-04-16 07:24:22,15.08845159,0.0001194,53.2183,312.3385,87.4268,272.686,0.00014246,1.98e-05,0.0,0 STARLINK-4115,1 53032U 22076AY  24107.30859316  .00001980  00000-0  14246-3 0  9997,2 53032  53.2183 312.3385 0001194  87.4268 272.6860 15.08845159 98466,6917.865,95.437,540.556,538.904,0.0
53032.0,STARLINK-4115,PAYLOAD,2024-04-16 20:07:27,15.08853354,0.0001305,53.2185,309.9584,94.1029,266.0112,0.00020671,3.005e-05,0.0,0 STARLINK-4115,1 53032U 22076AY  24107.83851058  .00003005  00000-0  20671-3 0  9999,2 53032  53.2185 309.9584 0001305  94.1029 266.0112 15.08853354 99010,6917.84,95.437,540.607,538.802,0.0
53032.0,STARLINK-4115,PAYLOAD,2024-04-17 19:58:16,15.08826421,0.0001211,53.2172,305.501,85.0824,275.0306,-8.2805e-05,-1.605e-05,0.0,0 STARLINK-4115,1 53032U 22076AY  24108.83213117 -.00001605  00000-0 -82805-4 0  9992,2 53032  53.2172 305.5010 0001211  85.0824 275.0306 15.08826421 99166,6917.922,95.438,540.625,538.949,0.0
53032.0,STARLINK-4115,PAYLOAD,2024-04-18 11:52:07,15.08837444,0.0001307,53.2178,302.53,57.2545,302.8573,0.00015176,2.128e-05,0.0,0 STARLINK-4115,1 53032U 22076AY  24109.49452980  .00002128  00000-0  15176-3 0  9993,2 53032  53.2178 302.5300 0001307  57.2545 302.8573 15.08837444 99261,6917.888,95.438,540.657,538.849,0.0
53032.0,STARLINK-4115,PAYLOAD,2024-04-18 19:49:02,15.08855411,0.0001289,53.2179,301.0381,100.2507,259.8631,0.00046804,7.172e-05,0.0,0 STARLINK-4115,1 53032U 22076AY  24109.82571925  .00007172  00000-0  46804-3 0  9997,2 53032  53.2179 301.0381 0001289 100.2507 259.8631 15.08855411 99317,6917.833,95.437,540.59,538.807,0.0
53032.0,STARLINK-4115,PAYLOAD,2024-04-19 13:18:17,15.08843051,0.0001452,53.2178,297.7703,106.6252,253.4899,0.00027282,4.057e-05,0.0,0 STARLINK-4115,1 53032U 22076AY  24110.55436705  .00004057  00000-0  27282-3 0  9993,2 53032  53.2178 297.7703 0001452 106.6252 253.4899 15.08843051 99429,6917.871,95.437,540.741,538.732,0.0
53032.0,STARLINK-4115,PAYLOAD,2024-04-19 18:04:26,15.08849849,0.0001372,53.2174,296.8764,107.4879,252.6263,0.00030059,4.5e-05,0.0,0 STARLINK-4115,1 53032U 22076AY  24110.75308380  .00004500  00000-0  30059-3 0  9991,2 53032  53.2174 296.8764 0001372 107.4879 252.6263 15.08849849 98984,6917.85,95.437,540.664,538.766,0.0
53032.0,STARLINK-4115,PAYLOAD,2024-04-20 19:30:37,15.08827374,0.0001384,53.2166,292.1161,112.9964,247.1174,-0.00027467,-4.655e-05,0.0,0 STARLINK-4115,1 53032U 22076AY  24111.81293215 -.00004655  00000-0 -27467-3 0  9991,2 53032  53.2166 292.1161 0001384 112.9964 247.1174 15.08827374 99614,6917.919,95.438,540.741,538.827,0.0
53032.0,STARLINK-4115,PAYLOAD,2024-04-20 21:06:00,15.0882369,0.0001319,53.2167,291.8191,94.8575,265.2568,-0.00029513,-4.98e-05,0.0,0 STARLINK-4115,1 53032U 22076AY  24111.87917545 -.00004980  00000-0 -29513-3 0  9991,2 53032  53.2167 291.8191 0001319  94.8575 265.2568 15.08823690 99152,6917.93,95.439,540.708,538.883,0.0
53032.0,STARLINK-4115,PAYLOAD,2024-04-21 11:24:28,15.0884116,0.0001214,53.2178,289.144,94.1122,266.0009,4.3831e-05,4.1e-06,0.0,0 STARLINK-4115,1 53032U 22076AY  24112.47533055  .00000410  00000-0  43831-4 0  9990,2 53032  53.2178 289.1440 0001214  94.1122 266.0009 15.08841160 99247,6917.877,95.437,540.582,538.902,0.0
53032.0,STARLINK-4115,PAYLOAD,2024-04-21 19:21:23,15.08870579,0.0001408,53.2174,287.6559,87.4105,272.7048,0.00075091,0.00011693,0.0,0 STARLINK-4115,1 53032U 22076AY  24112.80651963  .00011693  00000-0  75091-3 0  9993,2 53032  53.2174 287.6559 0001408  87.4105 272.7048 15.08870579 99768,6917.787,95.436,540.626,538.678,0.0
53032.0,STARLINK-4115,PAYLOAD,2024-04-22 11:15:15,15.08845172,0.0001394,53.2174,284.684,99.6781,260.4369,0.00026716,3.967e-05,0.0,0 STARLINK-4115,1 53032U 22076AY  24113.46892887  .00003967  00000-0  26716-3 0  9993,2 53032  53.2174 284.6840 0001394  99.6781 260.4369 15.08845172 99869,6917.865,95.437,540.694,538.765,0.0
53032.0,STARLINK-4115,PAYLOAD,2024-04-22 17:36:47,15.08851091,0.0001503,53.2172,283.4961,89.2388,270.8776,0.00027785,4.138e-05,0.0,0 STARLINK-4115,1 53032U 22076AY  24113.73388562  .00004138  00000-0  27785-3 0  9991,2 53032  53.2172 283.4961 0001503  89.2388 270.8776 15.08851091 99435,6917.846,95.437,540.751,538.672,0.0
53032.0,STARLINK-4115,PAYLOAD,2024-04-23 20:38:18,15.08876546,0.0001301,53.2169,278.4344,82.8913,277.2227,0.00039668,6.037e-05,0.0,0 STARLINK-4115,1 53032U 22076AY  24114.85994145  .00006037  00000-0  39668-3 0  9998,2 53032  53.2169 278.4344 0001301  82.8913 277.2227 15.08876546100076,6917.769,95.435,540.534,538.734,0.0
53032.0,STARLINK-4115,PAYLOAD,2024-04-24 10:56:48,15.08833811,7.46e-05,53.2169,275.7621,98.5769,261.5307,-0.00027519,-4.664e-05,0.0,0 STARLINK-4115,1 53032U 22076AY  24115.45611453 -.00004664  00000-0 -27519-3 0  9991,2 53032  53.2169 275.7621 0000746  98.5769 261.5307 15.08833811100162,6917.899,95.438,540.28,539.248,0.0
53032.0,STARLINK-4115,PAYLOAD,2024-04-24 14:07:34,15.08837539,0.0001188,53.2164,275.1683,94.8033,265.3095,-0.00017988,-3.149e-05,0.0,0 STARLINK-4115,1 53032U 22076AY  24115.58859429 -.00003149  00000-0 -17988-3 0  9998,2 53032  53.2164 275.1683 0001188  94.8033 265.3095 15.08837539 99718,6917.888,95.438,540.575,538.931,0.0
53032.0,STARLINK-4115,PAYLOAD,2024-04-24 15:42:57,15.0884013,0.0001339,53.2169,274.8692,104.2671,255.8469,-0.00015228,-2.711e-05,0.0,0 STARLINK-4115,1 53032U 22076AY  24115.65483204 -.00002711  00000-0 -15228-3 0  9999,2 53032  53.2169 274.8692 0001339 104.2671 255.8469 15.08840130 99722,6917.88,95.438,540.671,538.819,0.0
